[{"OBJECT_NAME":"STARLINK-3192","OBJECT_ID":"2021-115AV","EPOCH":"2026-03-09T12:20:21.146496","MEAN_MOTION":15.08834739,"ECCENTRICITY":0.00013578,"INCLINATION":53.2178,"RA_OF_ASC_NODE":139.9103,"ARG_OF_PERICENTER":89.0818,"MEAN_ANOMALY":271.033,"EPHEMERIS_TYPE":0,"CLASSIFICATION_TYPE":"U","NORAD_CAT_ID":49767,"ELEMENT_SET_NO":999,"REV_AT_EPOCH":23565,"BSTAR":2.9173052e-5,"MEAN_MOTION_DOT":1.76e-6,"MEAN_MOTION_DDOT":0},{"OBJECT_NAME":"OBJECT J","OBJECT_ID":"2025-292J","EPOCH":"2026-03-09T21:49:22.925568","MEAN_MOTION":15.05538385,"ECCENTRICITY":0.00147146,"INCLINATION":97.6397,"RA_OF_ASC_NODE":145.6338,"ARG_OF_PERICENTER":337.2811,"MEAN_ANOMALY":22.7762,"EPHEMERIS_TYPE":0,"CLASSIFICATION_TYPE":"U","NORAD_CAT_ID":67001,"ELEMENT_SET_NO":999,"REV_AT_EPOCH":1350,"BSTAR":0.00042553792,"MEAN_MOTION_DOT":6.079e-5,"MEAN_MOTION_DDOT":0}]
